[{"OBJECT_NAME":"ONEWEB-0710","OBJECT_ID":"2023-004AK","EPOCH":"2026-03-09T21:06:08.654976","MEAN_MOTION":13.17648538,"ECCENTRICITY":0.00018463,"INCLINATION":87.9151,"RA_OF_ASC_NODE":25.5873,"ARG_OF_PERICENTER":74.717,"MEAN_ANOMALY":285.4165,"EPHEMERIS_TYPE":0,"CLASSIFICATION_TYPE":"U","NORAD_CAT_ID":55173,"ELEMENT_SET_NO":999,"REV_AT_EPOCH":15450,"BSTAR":0.00015959162,"MEAN_MOTION_DOT":7.5e-7,"MEAN_MOTION_DDOT":0},{"OBJECT_NAME":"SL-14 DEB","OBJECT_ID":"1991-056DG","EPOCH":"2026-03-09T03:45:27.615168","MEAN_MOTION":13.11658689,"ECCENTRICITY":0.00382754,"INCLINATION":82.6145,"RA_OF_ASC_NODE":240.7072,"ARG_OF_PERICENTER":167.8252,"MEAN_ANOMALY":192.3802,"EPHEMERIS_TYPE":0,"CLASSIFICATION_TYPE":"U","NORAD_CAT_ID":47082,"ELEMENT_SET_NO":999,"REV_AT_EPOCH":25556,"BSTAR":0.0033210461,"MEAN_MOTION_DOT":1.198e-5,"MEAN_MOTION_DDOT":0}]
